start=new Date('2022-06-15T00:00:00.000Z').valueOf();
sats=[{"EPOCH":"2022-06-14T19:12:43.563744","APOAPSIS":"548.087","RA_OF_ASC_NODE":"309.3627","OBJECT_NAME":"STARLINK-1090","COUNTRY_CODE":"US","OBJECT_TYPE":"PAYLOAD","INCLINATION":"53.0540","DECAY_DATE":null,"OBJECT_ID":"2020-001BG","PERIOD":"95.592","REF_FRAME":"TEME","SEMIMAJOR_AXIS":"6925.336","MEAN_ELEMENT_THEORY":"SGP4","ELEMENT_SET_NO":"999","MEAN_ANOMALY":"276.1097","MEAN_MOTION":"15.06403941","TLE_LINE2":"2 44968  53.0540 309.3627 0001279  84.0037 276.1097 15.06403941134846","TIME_SYSTEM":"UTC","NORAD_CAT_ID":"44968","RCS_SIZE":"LARGE","PERIAPSIS":"546.316","ECCENTRICITY":"0.00012790","CENTER_NAME":"EARTH","LAUNCH_DATE":"2020-01-07","CLASSIFICATION_TYPE":"U","BSTAR":"0.00011941000000","MEAN_MOTION_DOT":"0.00001498","REV_AT_EPOCH":"13484","EPHEMERIS_TYPE":"0","FILE":"3496199","SITE":"AFETR","TLE_LINE1":"1 44968U 20001BG  22165.80050421  .00001498  00000-0  11941-3 0  9991","ARG_OF_PERICENTER":"84.0037","GP_ID":"206166475","MEAN_MOTION_DDOT":"0.0000000000000"},{"SITE":"AFETR","MEAN_MOTION_DDOT":"0.0000000000000","TLE_LINE1":"1 44969U 20001BH  22165.66044663 -.00000752  00000-0 -31611-4 0  9998","ARG_OF_PERICENTER":"86.3417","GP_ID":"206167226","EPHEMERIS_TYPE":"0","MEAN_MOTION_DOT":"-0.00000752","REV_AT_EPOCH":"13481","FILE":"3496199","CLASSIFICATION_TYPE":"U","LAUNCH_DATE":"2020-01-07","CENTER_NAME":"EARTH","BSTAR":"-0.00003161100000","PERIAPSIS":"546.473","RCS_SIZE":"LARGE","ECCENTRICITY":"0.00010520","ELEMENT_SET_NO":"999","MEAN_ELEMENT_THEORY":"SGP4","NORAD_CAT_ID":"44969","TIME_SYSTEM":"UTC","TLE_LINE2":"2 44969  53.0567 309.9910 0001052  86.3417 273.7693 15.06404019134812","MEAN_MOTION":"15.06404019","MEAN_ANOMALY":"273.7693","OBJECT_ID":"2020-001BH","DECAY_DATE":null,"SEMIMAJOR_AXIS":"6925.336","REF_FRAME":"TEME","PERIOD":"95.592","OBJECT_TYPE":"PAYLOAD","COUNTRY_CODE":"US","INCLINATION":"53.0567","EPOCH":"2022-06-14T15:51:02.588832","OBJECT_NAME":"STARLINK-1092","RA_OF_ASC_NODE":"309.9910","APOAPSIS":"547.930"},{"CENTER_NAME":"EARTH","LAUNCH_DATE":"2020-01-07","CLASSIFICATION_TYPE":"U","BSTAR":"-0.00007254000000","RCS_SIZE":"LARGE","PERIAPSIS":"546.269","ECCENTRICITY":"0.00013740","SITE":"AFETR","TLE_LINE1":"1 44970U 20001BJ  22165.77101959 -.00001362  00000-0 -72540-4 0  9998","GP_ID":"206167972","ARG_OF_PERICENTER":"90.6361","MEAN_MOTION_DDOT":"0.0000000000000","MEAN_MOTION_DOT":"-0.00001362","REV_AT_EPOCH":"13482","EPHEMERIS_TYPE":"0","FILE":"3496199","COUNTRY_CODE":"US","OBJECT_TYPE":"PAYLOAD","INCLINATION":"53.0544","EPOCH":"2022-06-14T18:30:16.092576","APOAPSIS":"548.172","RA_OF_ASC_NODE":"309.4819","OBJECT_NAME":"STARLINK-1093","MEAN_ELEMENT_THEORY":"SGP4","ELEMENT_SET_NO":"999","MEAN_MOTION":"15.06397826","MEAN_ANOMALY":"269.4785","TLE_LINE2":"2 44970  53.0544 309.4819 0001374  90.6361 269.4785 15.06397826134827","TIME_SYSTEM":"UTC","NORAD_CAT_ID":"44970","DECAY_DATE":null,"OBJECT_ID":"2020-001BJ","PERIOD":"95.592","REF_FRAME":"TEME","SEMIMAJOR_AXIS":"6925.355"},{"MEAN_ELEMENT_THEORY":"SGP4","ELEMENT_SET_NO":"999","MEAN_MOTION":"15.06391861","MEAN_ANOMALY":"279.5535","NORAD_CAT_ID":"44972","TIME_SYSTEM":"UTC","TLE_LINE2":"2 44972  53.0556 309.9287 0001494  80.5623 279.5535 15.06391861134826","OBJECT_ID":"2020-001BL","DECAY_DATE":null,"PERIOD":"95.593","SEMIMAJOR_AXIS":"6925.374","REF_FRAME":"TEME","OBJECT_TYPE":"PAYLOAD","COUNTRY_CODE":"US","INCLINATION":"53.0556","EPOCH":"2022-06-14T16:12:16.680384","RA_OF_ASC_NODE":"309.9287","APOAPSIS":"548.273","OBJECT_NAME":"STARLINK-1107","SITE":"AFETR","TLE_LINE1":"1 44972U 20001BL  22165.67519306 -.00000737  00000-0 -30568-4 0  9997","GP_ID":"206166725","ARG_OF_PERICENTER":"80.5623","MEAN_MOTION_DDOT":"0.0000000000000","EPHEMERIS_TYPE":"0","MEAN_MOTION_DOT":"-0.00000737","REV_AT_EPOCH":"13482","FILE":"3496199","CLASSIFICATION_TYPE":"U","LAUNCH_DATE":"2020-01-07","CENTER_NAME":"EARTH","BSTAR":"-0.00003056800000","RCS_SIZE":"LARGE","PERIAPSIS":"546.204","ECCENTRICITY":"0.00014940"},{"INCLINATION":"53.0540","COUNTRY_CODE":"US","OBJECT_TYPE":"PAYLOAD","APOAPSIS":"548.234","RA_OF_ASC_NODE":"309.1275","OBJECT_NAME":"STARLINK-1115","EPOCH":"2022-06-14T20:27:02.156256","MEAN_MOTION":"15.06404355","MEAN_ANOMALY":"290.8809","TLE_LINE2":"2 44973  53.0540 309.1275 0001493  69.2340 290.8809 15.06404355134843","TIME_SYSTEM":"UTC","NORAD_CAT_ID":"44973","MEAN_ELEMENT_THEORY":"SGP4","ELEMENT_SET_NO":"999","PERIOD":"95.592","REF_FRAME":"TEME","SEMIMAJOR_AXIS":"6925.335","DECAY_DATE":null,"OBJECT_ID":"2020-001BM","BSTAR":"0.00004458900000","LAUNCH_DATE":"2020-01-07","CENTER_NAME":"EARTH","CLASSIFICATION_TYPE":"U","ECCENTRICITY":"0.00014930","RCS_SIZE":"LARGE","PERIAPSIS":"546.166","GP_ID":"206166975","TLE_LINE1":"1 44973U 20001BM  22165.85210829  .00000383  00000-0  44589-4 0  9999","ARG_OF_PERICENTER":"69.2340","MEAN_MOTION_DDOT":"0.0000000000000","SITE":"AFETR","FILE":"3496199","EPHEMERIS_TYPE":"0","MEAN_MOTION_DOT":"0.00000383","REV_AT_EPOCH":"13484"},{"CENTER_NAME":"EARTH","LAUNCH_DATE":"2020-01-29","CLASSIFICATION_TYPE":"U","BSTAR":"0.00001815600000","PERIAPSIS":"546.026","RCS_SIZE":"LARGE","ECCENTRICITY":"0.00017130","SITE":"AFETR","MEAN_MOTION_DDOT":"0.0000000000000","TLE_LINE1":"1 45044U 20006A   22165.56092215 -.00000011  00000-0  18156-4 0  9999","ARG_OF_PERICENTER":"48.9587","GP_ID":"206136770","REV_AT_EPOCH":"13113","MEAN_MOTION_DOT":"-0.00000011","EPHEMERIS_TYPE":"0","FILE":"3495970","COUNTRY_CODE":"US","OBJECT_TYPE":"PAYLOAD","INCLINATION":"53.0532","EPOCH":"2022-06-14T13:27:43.673760","OBJECT_NAME":"STARLINK-1132","APOAPSIS":"548.399","RA_OF_ASC_NODE":"270.4400","ELEMENT_SET_NO":"999","MEAN_ELEMENT_THEORY":"SGP4","TIME_SYSTEM":"UTC","TLE_LINE2":"2 45044  53.0532 270.4400 0001713  48.9587 311.1550 15.06400364131131","NORAD_CAT_ID":"45044","MEAN_MOTION":"15.06400364","MEAN_ANOMALY":"311.1550","DECAY_DATE":null,"OBJECT_ID":"2020-006A","REF_FRAME":"TEME","SEMIMAJOR_AXIS":"6925.347","PERIOD":"95.592"},{"SITE":"AFETR","ARG_OF_PERICENTER":"48.4786","TLE_LINE1":"1 45045U 20006B   22165.81265560  .00042121  00000-0  27950-2 0  9990","GP_ID":"206167233","MEAN_MOTION_DDOT":"0.0000000000000","MEAN_MOTION_DOT":"0.00042121","EPHEMERIS_TYPE":"0","REV_AT_EPOCH":"13089","FILE":"3496199","CLASSIFICATION_TYPE":"U","LAUNCH_DATE":"2020-01-29","CENTER_NAME":"EARTH","BSTAR":"0.00279500000000","RCS_SIZE":"LARGE","PERIAPSIS":"544.963","ECCENTRICITY":"0.00012180","MEAN_ELEMENT_THEORY":"SGP4","ELEMENT_SET_NO":"999","MEAN_ANOMALY":"311.6308","MEAN_MOTION":"15.06859200","NORAD_CAT_ID":"45045","TLE_LINE2":"2 45045  53.0557 289.2868 0001218  48.4786 311.6308 15.06859200130896","TIME_SYSTEM":"UTC","OBJECT_ID":"2020-006B","DECAY_DATE":null,"PERIOD":"95.563","SEMIMAJOR_AXIS":"6923.942","REF_FRAME":"TEME","OBJECT_TYPE":"PAYLOAD","COUNTRY_CODE":"US","INCLINATION":"53.0557","EPOCH":"2022-06-14T19:30:13.443840","RA_OF_ASC_NODE":"289.2868","APOAPSIS":"546.650","OBJECT_NAME":"STARLINK-1120"},{"BSTAR":"0.00114890000000","LAUNCH_DATE":"2020-01-29","CENTER_NAME":"EARTH","CLASSIFICATION_TYPE":"U","ECCENTRICITY":"0.00004440","RCS_SIZE":"LARGE","PERIAPSIS":"521.140","TLE_LINE1":"1 45046U 20006C   22165.59092242  .00021372  00000-0  11489-2 0  9996","GP_ID":"206135777","ARG_OF_PERICENTER":"342.0025","MEAN_MOTION_DDOT":"0.0000000000000","SITE":"AFETR","FILE":"3495970","EPHEMERIS_TYPE":"0","MEAN_MOTION_DOT":"0.00021372","REV_AT_EPOCH":"13098","INCLINATION":"52.9965","COUNTRY_CODE":"US","OBJECT_TYPE":"PAYLOAD","APOAPSIS":"521.752","RA_OF_ASC_NODE":"278.4813","OBJECT_NAME":"STARLINK-1129","EPOCH":"2022-06-14T14:10:55.697088","MEAN_MOTION":"15.14846727","MEAN_ANOMALY":"18.0951","TLE_LINE2":"2 45046  52.9965 278.4813 0000444 342.0025  18.0951 15.14846727130988","TIME_SYSTEM":"UTC","NORAD_CAT_ID":"45046","MEAN_ELEMENT_THEORY":"SGP4","ELEMENT_SET_NO":"999","PERIOD":"95.059","REF_FRAME":"TEME","SEMIMAJOR_AXIS":"6899.581","DECAY_DATE":null,"OBJECT_ID":"2020-006C"},{"BSTAR":"-0.00005152700000","CLASSIFICATION_TYPE":"U","CENTER_NAME":"EARTH","LAUNCH_DATE":"2020-01-29","ECCENTRICITY":"0.00015090","RCS_SIZE":"LARGE","PERIAPSIS":"546.194","ARG_OF_PERICENTER":"72.5267","TLE_LINE1":"1 45047U 20006D   22165.75075622 -.00001049  00000-0 -51527-4 0  9998","GP_ID":"206166732","MEAN_MOTION_DDOT":"0.0000000000000","SITE":"AFETR","FILE":"3496199","EPHEMERIS_TYPE":"0","MEAN_MOTION_DOT":"-0.00001049","REV_AT_EPOCH":"13088","INCLINATION":"53.0561","OBJECT_TYPE":"PAYLOAD","COUNTRY_CODE":"US","RA_OF_ASC_NODE":"289.5846","APOAPSIS":"548.284","OBJECT_NAME":"STARLINK-1131","EPOCH":"2022-06-14T18:01:05.337408","MEAN_ANOMALY":"287.5887","MEAN_MOTION":"15.06391832","NORAD_CAT_ID":"45047","TIME_SYSTEM":"UTC","TLE_LINE2":"2 45047  53.0561 289.5846 0001509  72.5267 287.5887 15.06391832130881","MEAN_ELEMENT_THEORY":"SGP4","ELEMENT_SET_NO":"999","PERIOD":"95.593","SEMIMAJOR_AXIS":"6925.374","REF_FRAME":"TEME","OBJECT_ID":"2020-006D","DECAY_DATE":null},{"FILE":"3496199","MEAN_MOTION_DOT":"0.00000683","EPHEMERIS_TYPE":"0","REV_AT_EPOCH":"13088","ARG_OF_PERICENTER":"85.9628","TLE_LINE1":"1 45048U 20006E   22165.75812582  .00000683  00000-0  64710-4 0  9992","GP_ID":"206166982","MEAN_MOTION_DDOT":"0.0000000000000","SITE":"AFETR","ECCENTRICITY":"0.00014150","RCS_SIZE":"LARGE","PERIAPSIS":"546.220","BSTAR":"0.00006471000000","CLASSIFICATION_TYPE":"U","CENTER_NAME":"EARTH","LAUNCH_DATE":"2020-01-29","PERIOD":"95.592","SEMIMAJOR_AXIS":"6925.335","REF_FRAME":"TEME","OBJECT_ID":"2020-006E","DECAY_DATE":null,"MEAN_MOTION":"15.06404492","MEAN_ANOMALY":"274.1522","NORAD_CAT_ID":"45048","TLE_LINE2":"2 45048  53.0550 289.5369 0001415  85.9628 274.1522 15.06404492130880","TIME_SYSTEM":"UTC","MEAN_ELEMENT_THEORY":"SGP4","ELEMENT_SET_NO":"999","RA_OF_ASC_NODE":"289.5369","APOAPSIS":"548.180","OBJECT_NAME":"STARLINK-1134","EPOCH":"2022-06-14T18:11:42.070848","INCLINATION":"53.0550","OBJECT_TYPE":"PAYLOAD","COUNTRY_CODE":"US"}];
